ONEWEB-0674             
1 55833U 23029AP  24136.93707826  .00000100  00000+0  23517-3 0  9999
2 55833  87.8953  81.3937 0001416  90.2873 269.8419 13.14505909 59277
ONEWEB-0675             
1 55834U 23029AQ  24137.40009803  .00000073  00000+0  15027-3 0  9999
2 55834  87.9135  96.5811 0002478  79.6004 280.5408 13.19728319 59158
ONEWEB-0720             
1 55835U 23029AR  24136.93730779  .00000256  00000+0  60801-3 0  9993
2 55835  87.9134  96.6745 0002281  98.0652 262.0740 13.19726324 58305
ONEWEB-0537             
1 56046U 23043A   24136.94508744 -.00000040  00000+0 -13740-3 0  9993
2 56046  87.9133  20.4985 0002058  73.4671 286.6686 13.16593809 58667
ONEWEB-0538             
1 56047U 23043B   24136.71076300 -.00000089  00000+0 -26528-3 0  9998
2 56047  87.9136  20.5642 0002119  84.4081 275.7292 13.16593404 58648
ONEWEB-0546             
1 56048U 23043C   24137.38206948  .00000010  00000+0 -66262-5 0  9990
2 56048  87.9137  20.3944 0002117  56.4691 303.6642 13.16594961 59636
ONEWEB-0547             
1 56049U 23043D   24137.43999662  .00000077  00000+0  15597-3 0  9994
2 56049  87.9319  35.6080 0002398  81.2571 278.8835 13.21826589 58505
ONEWEB-0548             
1 56050U 23043E   24137.40739029 -.00000277  00000+0 -75751-3 0  9994
2 56050  87.9139  20.4329 0001235  87.6383 272.4890 13.16593689 59637
